#
# this file is automatically produced by convkeps.pl
#
# Last update: Sat Feb 23 10:03:30 2002
#

package Sun;

%keps = (
  'AO-21' => {
    orbit => '55530',
    raan => '224.5869',
    meananomaly => '185.2836',
    eccentricity => '0.0034218',
    meanmotion => '13.74856284',
    inclination => '82.9374',
    number => '91006',
    argperigee => '174.8678',
    mm1 => '1.72e-06',
    mm2 => '0',
    bstar => '0.00016432',
    id => '21087',
    elset => '368',
    epoch => '2053.74646878'
  },
  'AO-40' => {
    orbit => '602',
    raan => '127.2801',
    meananomaly => '358.327',
    eccentricity => '0.7938465',
    meanmotion => '1.25596227',
    inclination => '7.1132',
    number => '72',
    argperigee => '23.2667',
    mm1 => '-3.54e-06',
    mm2 => '0',
    bstar => '0.0001',
    id => '26609',
    elset => '199',
    epoch => '2051.44867191'
  },
  RESURS => {
    orbit => '18797',
    raan => '131.1808',
    meananomaly => '279.7134',
    eccentricity => '0.0001893',
    meanmotion => '14.23496082',
    inclination => '98.6685',
    number => '98043',
    argperigee => '80.4254',
    mm1 => '8.59e-06',
    mm2 => '0',
    bstar => '0.00039717',
    id => '25394',
    elset => '169',
    epoch => '2052.20973729'
  },
  'FO-20' => {
    orbit => '56422',
    raan => '79.8874',
    meananomaly => '264.4242',
    eccentricity => '0.0540844',
    meanmotion => '12.83309868',
    inclination => '99.0278',
    number => '90013',
    argperigee => '101.8013',
    mm1 => '-1e-07',
    mm2 => '0',
    bstar => '4.1889e-05',
    id => '20480',
    elset => '378',
    epoch => '2053.66516928'
  },
  'RS-10/11' => {
    orbit => '73476',
    raan => '54.7214',
    meananomaly => '213.1966',
    eccentricity => '0.0012229',
    meanmotion => '13.72635238',
    inclination => '82.9226',
    number => '87054',
    argperigee => '146.9963',
    mm1 => '1.55e-06',
    mm2 => '0',
    bstar => '0.00015267',
    id => '18129',
    elset => '77',
    epoch => '2051.9482032'
  },
  'AO-27' => {
    orbit => '43809',
    raan => '94.3128',
    meananomaly => '109.2438',
    eccentricity => '0.0007669',
    meanmotion => '14.28697687',
    inclination => '98.3187',
    number => '93061',
    argperigee => '250.7916',
    mm1 => '5.56e-06',
    mm2 => '0',
    bstar => '0.00023742',
    id => '22825',
    elset => '206',
    epoch => '2051.94162403'
  },
  POSAT => {
    orbit => '43849',
    raan => '97.6039',
    meananomaly => '133.1387',
    eccentricity => '0.00089',
    meanmotion => '14.2944048',
    inclination => '98.3188',
    number => '93061',
    argperigee => '226.9048',
    mm1 => '7.43e-06',
    mm2 => '0',
    bstar => '0.00030735',
    id => '22829',
    elset => '180',
    epoch => '2053.70076891'
  },
  'RS-12/13' => {
    orbit => '55393',
    raan => '90.6941',
    meananomaly => '143.6398',
    eccentricity => '0.0027652',
    meanmotion => '13.74339746',
    inclination => '82.9195',
    number => '91007',
    argperigee => '216.2883',
    mm1 => '1.66e-06',
    mm2 => '0',
    bstar => '0.00016012',
    id => '21089',
    elset => '403',
    epoch => '2051.6264498'
  },
  'MET-3/5' => {
    orbit => '50573',
    raan => '295.1141',
    meananomaly => '331.8791',
    eccentricity => '0.0014175',
    meanmotion => '13.16956122',
    inclination => '82.5563',
    number => '91056',
    argperigee => '28.3083',
    mm1 => '5.1e-07',
    mm2 => '0',
    bstar => '0.0001',
    id => '21655',
    elset => '521',
    epoch => '2051.83178127'
  },
  'KO-23' => {
    orbit => '44765',
    raan => '165.2313',
    meananomaly => '282.9308',
    eccentricity => '5.3e-06',
    meanmotion => '12.86386975',
    inclination => '66.0876',
    number => '92052',
    argperigee => '77.1716',
    mm1 => '-3.7e-07',
    mm2 => '0',
    bstar => '0.0001',
    id => '22077',
    elset => '68',
    epoch => '2051.8911138'
  },
  'NOAA-10' => {
    orbit => '80246',
    raan => '44.3218',
    meananomaly => '299.8746',
    eccentricity => '0.0013452',
    meanmotion => '14.26751792',
    inclination => '98.7009',
    number => '86073',
    argperigee => '60.3774',
    mm1 => '8.96e-06',
    mm2 => '0',
    bstar => '0.00038794',
    id => '16969',
    elset => '225',
    epoch => '2053.85146908'
  },
  'IO-26' => {
    orbit => '43808',
    raan => '94.9236',
    meananomaly => '104.6265',
    eccentricity => '0.0008187',
    meanmotion => '14.28895686',
    inclination => '98.3204',
    number => '93061',
    argperigee => '255.4008',
    mm1 => '6.03e-06',
    mm2 => '0',
    bstar => '0.00025513',
    id => '22826',
    elset => '154',
    epoch => '2051.60567635'
  },
  'FO-29' => {
    orbit => '27223',
    raan => '247.754',
    meananomaly => '286.3731',
    eccentricity => '0.0351641',
    meanmotion => '13.52825526',
    inclination => '98.5132',
    number => '96046',
    argperigee => '77.6531',
    mm1 => '7.7e-07',
    mm2 => '0',
    bstar => '0.00011137',
    id => '24278',
    elset => '501',
    epoch => '2051.6339125'
  },
  'TIUNGSAT-1' => {
    orbit => '7563',
    raan => '62.9745',
    meananomaly => '69.2362',
    eccentricity => '0.0050879',
    meanmotion => '14.79050987',
    inclination => '64.5586',
    number => '57',
    argperigee => '290.3301',
    mm1 => '5.673e-05',
    mm2 => '0',
    bstar => '0.00076673',
    id => '26548',
    elset => '255',
    epoch => '2051.51211746'
  },
  'NOAA-11' => {
    orbit => '69180',
    raan => '130.791',
    meananomaly => '216.9056',
    eccentricity => '0.0011928',
    meanmotion => '14.14251052',
    inclination => '98.9336',
    number => '88089',
    argperigee => '143.2935',
    mm1 => '6.62e-06',
    mm2 => '0',
    bstar => '0.00037016',
    id => '19531',
    elset => '57',
    epoch => '2053.80745705'
  },
  'KO-25' => {
    orbit => '40628',
    raan => '95.2407',
    meananomaly => '128.8726',
    eccentricity => '0.0009257',
    meanmotion => '14.29274799',
    inclination => '98.3145',
    number => '93061',
    argperigee => '231.163',
    mm1 => '5.29e-06',
    mm2 => '0',
    bstar => '0.00022403',
    id => '22828',
    elset => '151',
    epoch => '2051.67676922'
  },
  ISS => {
    orbit => '18619',
    raan => '267.6636',
    meananomaly => '8.3296',
    eccentricity => '0.0011422',
    meanmotion => '15.60790176',
    inclination => '51.6367',
    number => '98067',
    argperigee => '103.2889',
    mm1 => '0.00047747',
    mm2 => '0',
    bstar => '0.00056318',
    id => '25544',
    elset => '107',
    epoch => '2053.82795755'
  },
  'NOAA-12' => {
    orbit => '55984',
    raan => '45.3157',
    meananomaly => '3.0334',
    eccentricity => '0.001292',
    meanmotion => '14.24583719',
    inclination => '98.5935',
    number => '91032',
    argperigee => '357.0768',
    mm1 => '1.291e-05',
    mm2 => '0',
    bstar => '0.0005742',
    id => '21263',
    elset => '517',
    epoch => '2053.82560637'
  },
  'NOAA-14' => {
    orbit => '36852',
    raan => '57.7216',
    meananomaly => '201.7855',
    eccentricity => '0.0009794',
    meanmotion => '14.13017875',
    inclination => '99.1916',
    number => '94089',
    argperigee => '158.3732',
    mm1 => '6.51e-06',
    mm2 => '0',
    bstar => '0.00037382',
    id => '23455',
    elset => '79',
    epoch => '2053.81235908'
  },
  'NO-44' => {
    orbit => '2049',
    raan => '109.7397',
    meananomaly => '78.543',
    eccentricity => '0.0005787',
    meanmotion => '14.28716591',
    inclination => '67.0486',
    number => '1043',
    argperigee => '281.5015',
    mm1 => '8.27e-06',
    mm2 => '0',
    bstar => '0.00036102',
    id => '26931',
    elset => '117',
    epoch => '2051.61405266'
  },
  'NOAA-15' => {
    orbit => '19645',
    raan => '80.2512',
    meananomaly => '70.6597',
    eccentricity => '0.0009768',
    meanmotion => '14.23922981',
    inclination => '98.5774',
    number => '98030',
    argperigee => '289.3525',
    mm1 => '6.99e-06',
    mm2 => '0',
    bstar => '0.0003235',
    id => '25338',
    elset => '549',
    epoch => '2053.81698144'
  },
  'NO-45' => {
    orbit => '2051',
    raan => '109.5135',
    meananomaly => '80.8267',
    eccentricity => '0.0003577',
    meanmotion => '14.2900917',
    inclination => '67.0521',
    number => '1043',
    argperigee => '279.2427',
    mm1 => '6.22e-06',
    mm2 => '0',
    bstar => '0.00027808',
    id => '26932',
    elset => '115',
    epoch => '2051.64971714'
  },
  'NOAA-16' => {
    orbit => '7322',
    raan => '0.5784',
    meananomaly => '116.4891',
    eccentricity => '0.0009896',
    meanmotion => '14.11551772',
    inclination => '98.8576',
    number => '55',
    argperigee => '243.5279',
    mm1 => '9.46e-06',
    mm2 => '0',
    bstar => '0.00054516',
    id => '26536',
    elset => '707',
    epoch => '2053.62323329'
  },
  'UO-22' => {
    orbit => '55613',
    raan => '57.8937',
    meananomaly => '217.4388',
    eccentricity => '0.0008144',
    meanmotion => '14.38666301',
    inclination => '98.124',
    number => '91050',
    argperigee => '142.7372',
    mm1 => '1.18e-05',
    mm2 => '0',
    bstar => '0.00039793',
    id => '21575',
    elset => '449',
    epoch => '2051.94787786'
  },
  'SO-43' => {
    orbit => '2233',
    raan => '35.1349',
    meananomaly => '50.296',
    eccentricity => '0.0009321',
    meanmotion => '15.43176559',
    inclination => '67.0507',
    number => '1043',
    argperigee => '309.7466',
    mm1 => '0.0004917',
    mm2 => '0',
    bstar => '0.0010997',
    id => '26929',
    elset => '177',
    epoch => '2053.53045828'
  },
  UARS => {
    orbit => '57124',
    raan => '57.796',
    meananomaly => '270.0247',
    eccentricity => '0.0004067',
    meanmotion => '15.0149794',
    inclination => '56.981',
    number => '91063',
    argperigee => '90.1255',
    mm1 => '2.62e-05',
    mm2 => '0',
    bstar => '0.00022015',
    id => '21701',
    elset => '546',
    epoch => '2052.09564937'
  },
  'SAUDISAT-1A' => {
    orbit => '7566',
    raan => '64.12',
